$$SOE
2461295.500000000, A.D. 2026-Sep-12 00:00:00.0000, -3.517751694485032E+08, -3.132009602985427E+07, 3.284120465624092E+06,
2461302.500000000, A.D. 2026-Sep-19 00:00:00.0000, -3.520559383876836E+08, -4.313193394722963E+07, 2.576707590438688E+06,
2461309.500000000, A.D. 2026-Sep-26 00:00:00.0000, -3.519537519958285E+08, -5.489683275837199E+07, 1.866491127220742E+06,
2461316.500000000, A.D. 2026-Oct-03 00:00:00.0000, -3.514735897622552E+08, -6.660275839100625E+07, 1.154269618111357E+06,
2461323.500000000, A.D. 2026-Oct-10 00:00:00.0000, -3.506207446487306E+08, -7.823804892404653E+07, 4.408237733386457E+05,
2461330.500000000, A.D. 2026-Oct-17 00:00:00.0000, -3.494007994326486E+08, -8.979141524512331E+07, -2.730839154376984E+05,
2461337.500000000, A.D. 2026-Oct-24 00:00:00.0000, -3.478196040325633E+08, -1.012519405880937E+08, -9.867094818836898E+05,
2461344.500000000, A.D. 2026-Oct-31 00:00:00.0000, -3.458832537422638E+08, -1.126090791369489E+08, -1.699327733051993E+06,
2461351.500000000, A.D. 2026-Nov-07 00:00:00.0000, -3.435980680496758E+08, -1.238526537363617E+08, -2.410232470267251E+06,
2461358.500000000, A.D. 2026-Nov-14 00:00:00.0000, -3.409705698458770E+08, -1.349728519297847E+08, -3.118736634924971E+06,
2461365.500000000, A.D. 2026-Nov-21 00:00:00.0000, -3.380074668336625E+08, -1.459602197459315E+08, -3.824172163261712E+06,
2461372.500000000, A.D. 2026-Nov-28 00:00:00.0000, -3.347156361262559E+08, -1.568056563400114E+08, -4.525889710274577E+06,
2461379.500000000, A.D. 2026-Dec-05 00:00:00.0000, -3.311021084066898E+08, -1.675004102380881E+08, -5.223258634004124E+06,
2461386.500000000, A.D. 2026-Dec-12 00:00:00.0000, -3.271740514665478E+08, -1.780360741561404E+08, -5.915667005916715E+06,
2461393.500000000, A.D. 2026-Dec-19 00:00:00.0000, -3.229387549865579E+08, -1.884045784629296E+08, -6.602521478158146E+06,
2461400.500000000, A.D. 2026-Dec-26 00:00:00.0000, -3.184036166727429E+08, -1.985981842270345E+08, -7.283247070038199E+06,
2461407.500000000, A.D. 2027-Jan-02 00:00:00.0000, -3.135761294439369E+08, -2.086094761076024E+08, -7.957286919191703E+06,
2461414.500000000, A.D. 2027-Jan-09 00:00:00.0000, -3.084638695254673E+08, -2.184313551310638E+08, -8.624102010697693E+06,
2461421.500000000, A.D. 2027-Jan-16 00:00:00.0000, -3.030744853837909E+08, -2.280570314009558E+08, -9.283170890452623E+06,
2461428.500000000, A.D. 2027-Jan-23 00:00:00.0000, -2.974156874246132E+08, -2.374800168312882E+08, -9.933989373778552E+06,
2461435.500000000, A.D. 2027-Jan-30 00:00:00.0000, -2.914952382348639E+08, -2.466941179974775E+08, -1.057607027374697E+07,
2461442.500000000, A.D. 2027-Feb-06 00:00:00.0000, -2.853209429119269E+08, -2.556934288060646E+08, -1.120894316352846E+07,
2461449.500000000, A.D. 2027-Feb-13 00:00:00.0000, -2.789006399082008E+08, -2.644723217989164E+08, -1.183215403363799E+07,
2461456.500000000, A.D. 2027-Feb-20 00:00:00.0000, -2.722421947206274E+08, -2.730254389125544E+08, -1.244526469429466E+07,
2461463.500000000, A.D. 2027-Feb-27 00:00:00.0000, -2.653534949936855E+08, -2.813476849329524E+08, -1.304785231570378E+07,
2461470.500000000, A.D. 2027-Mar-06 00:00:00.0000, -2.582424439822138E+08, -2.894342217481549E+08, -1.363950922784951E+07,
2461477.500000000, A.D. 2027-Mar-13 00:00:00.0000, -2.509169539384972E+08, -2.972804613722332E+08, -1.421984266729960E+07,
2461484.500000000, A.D. 2027-Mar-20 00:00:00.0000, -2.433849405187947E+08, -3.048820585973786E+08, -1.478847443763542E+07,
2461491.500000000, A.D. 2027-Mar-27 00:00:00.0000, -2.356543179765997E+08, -3.122349038439177E+08, -1.534504054909565E+07,
2461498.500000000, A.D. 2027-Apr-03 00:00:00.0000, -2.277329949121634E+08, -3.193351162740691E+08, -1.588919086202970E+07,
2461505.500000000, A.D. 2027-Apr-10 00:00:00.0000, -2.196288704912306E+08, -3.261790371607950E+08, -1.642058873953117E+07,
2461512.500000000, A.D. 2027-Apr-17 00:00:00.0000, -2.113498310853916E+08, -3.327632235367134E+08, -1.693891071355706E+07,
2461519.500000000, A.D. 2027-Apr-24 00:00:00.0000, -2.029037472289702E+08, -3.390844421931657E+08, -1.744384617766774E+07,
2461526.500000000, A.D. 2027-May-01 00:00:00.0000, -1.942984705671687E+08, -3.451396640079724E+08, -1.793509713226318E+07,
2461533.500000000, A.D. 2027-May-08 00:00:00.0000, -1.855418304634349E+08, -3.509260578584082E+08, -1.841237794993335E+07,
2461540.500000000, A.D. 2027-May-15 00:00:00.0000, -1.766416317391412E+08, -3.564409831687932E+08, -1.887541494615456E+07,
2461547.500000000, A.D. 2027-May-22 00:00:00.0000, -1.676056550857068E+08, -3.616819836856129E+08, -1.932394582408199E+07,
2461554.500000000, A.D. 2027-May-29 00:00:00.0000, -1.584416567706455E+08, -3.666467839506493E+08, -1.975771942162903E+07,
2461561.500000000, A.D. 2027-Jun-05 00:00:00.0000, -1.491573667322277E+08, -3.713332853427191E+08, -2.017649558625576E+07,
2461568.500000000, A.D. 2027-Jun-12 00:00:00.0000, -1.397604870505478E+08, -3.757395612569107E+08, -2.058004495800297E+07,
2461575.500000000, A.D. 2027-Jun-19 00:00:00.0000, -1.302586911067031E+08, -3.798638523563000E+08, -2.096814870674181E+07,
2461582.500000000, A.D. 2027-Jun-26 00:00:00.0000, -1.206596231323039E+08, -3.837045621574938E+08, -2.134059827064991E+07,
2461589.500000000, A.D. 2027-Jul-03 00:00:00.0000, -1.109708979999810E+08, -3.872602529420792E+08, -2.169719510755190E+07,
2461596.500000000, A.D. 2027-Jul-10 00:00:00.0000, -1.012001012024297E+08, -3.905296419861721E+08, -2.203775046209100E+07,
2461603.500000000, A.D. 2027-Jul-17 00:00:00.0000, -9.135478896991877E+07, -3.935115981476842E+08, -2.236208515543798E+07,
2461610.500000000, A.D. 2027-Jul-24 00:00:00.0000, -8.144248835742809E+07, -3.962051388737217E+08, -2.267002941701481E+07,
2461617.500000000, A.D. 2027-Jul-31 00:00:00.0000, -7.147069687805636E+07, -3.986094273909974E+08, -2.296142277656189E+07,
2461624.500000000, A.D. 2027-Aug-07 00:00:00.0000, -6.144688187170427E+07, -4.007237689249711E+08, -2.323611390379813E+07,
2461631.500000000, A.D. 2027-Aug-14 00:00:00.0000, -5.137848189835485E+07, -4.025476061972401E+08, -2.349396020510796E+07,
2461638.500000000, A.D. 2027-Aug-21 00:00:00.0000, -4.127290952527488E+07, -4.040805175614843E+08, -2.373482750885725E+07,
2461645.500000000, A.D. 2027-Aug-28 00:00:00.0000, -3.113755206507036E+07, -4.053222165732586E+08, -2.395859005588421E+07,
2461652.500000000, A.D. 2027-Sep-04 00:00:00.0000, -2.097977143535804E+07, -4.062725504906944E+08, -2.416513048255226E+07,
2461659.500000000, A.D. 2027-Sep-11 00:00:00.0000, -1.080690452572558E+07, -4.069314983657475E+08, -2.435433972260559E+07,
2461666.500000000, A.D. 2027-Sep-18 00:00:00.0000, -6.262639293945188E+05, -4.072991693738556E+08, -2.452611689337429E+07,
2461673.500000000, A.D. 2027-Sep-25 00:00:00.0000, 9.554861198428780E+06, -4.073758014569669E+08, -2.468036919389495E+07,
2461680.500000000, A.D. 2027-Oct-02 00:00:00.0000, 1.972920423983774E+07, -4.071617602494651E+08, -2.481701181986886E+07,
2461687.500000000, A.D. 2027-Oct-09 00:00:00.0000, 2.988952020329515E+07, -4.066575382892039E+08, -2.493596789828759E+07,
2461694.500000000, A.D. 2027-Oct-16 00:00:00.0000, 4.002858487513626E+07, -4.058637545677006E+08, -2.503716845244485E+07,
2461701.500000000, A.D. 2027-Oct-23 00:00:00.0000, 5.013919430163421E+07, -4.047811544253758E+08, -2.512055242196470E+07,
2461708.500000000, A.D. 2027-Oct-30 00:00:00.0000, 6.021416498302663E+07, -4.034106091813197E+08, -2.518606672242421E+07,
2461715.500000000, A.D. 2027-Nov-06 00:00:00.0000, 7.024633362152581E+07, -4.017531143671822E+08, -2.523366614546576E+07,
2461722.500000000, A.D. 2027-Nov-13 00:00:00.0000, 8.022855444356492E+07, -3.998097886356928E+08, -2.526331308654860E+07,
2461729.500000000, A.D. 2027-Nov-20 00:00:00.0000, 9.015369700659323E+07, -3.975818755227073E+08, -2.527497754480803E+07,
2461736.500000000, A.D. 2027-Nov-27 00:00:00.0000, 1.000146461191382E+08, -3.950707450946923E+08, -2.526863730117181E+07,
2461743.500000000, A.D. 2027-Dec-04 00:00:00.0000, 1.098043018621811E+08, -3.922778945678216E+08, -2.524427801484331E+07,
2461750.500000000, A.D. 2027-Dec-11 00:00:00.0000, 1.195155791717656E+08, -3.892049488649545E+08, -2.520189326694405E+07,
2461757.500000000, A.D. 2027-Dec-18 00:00:00.0000, 1.291414072664344E+08, -3.858536614524840E+08, -2.514148460460120E+07,
2461764.500000000, A.D. 2027-Dec-25 00:00:00.0000, 1.386747290785411E+08, -3.822259154608287E+08, -2.506306159966969E+07,
2461771.500000000, A.D. 2028-Jan-01 00:00:00.0000, 1.481085007375711E+08, -3.783237250733808E+08, -2.496664192454816E+07,
$$EOE